[{"OBJECT_NAME":"STARLINK-4608","OBJECT_ID":"2022-104AK","EPOCH":"2026-03-09T17:49:33.021984","MEAN_MOTION":15.08836947,"ECCENTRICITY":0.00013691,"INCLINATION":53.2167,"RA_OF_ASC_NODE":233.8378,"ARG_OF_PERICENTER":88.8509,"MEAN_ANOMALY":271.264,"EPHEMERIS_TYPE":0,"CLASSIFICATION_TYPE":"U","NORAD_CAT_ID":53621,"ELEMENT_SET_NO":999,"REV_AT_EPOCH":19564,"BSTAR":3.7606891e-5,"MEAN_MOTION_DOT":3.11e-6,"MEAN_MOTION_DDOT":0},{"OBJECT_NAME":"COSMOS 397 DEB","OBJECT_ID":"1971-015AG","EPOCH":"2026-03-09T22:22:53.777568","MEAN_MOTION":14.12365411,"ECCENTRICITY":0.0445918,"INCLINATION":65.7074,"RA_OF_ASC_NODE":278.293,"ARG_OF_PERICENTER":75.555,"MEAN_ANOMALY":289.457,"EPHEMERIS_TYPE":0,"CLASSIFICATION_TYPE":"U","NORAD_CAT_ID":5144,"ELEMENT_SET_NO":999,"REV_AT_EPOCH":68427,"BSTAR":0.0016503671,"MEAN_MOTION_DOT":7.82e-5,"MEAN_MOTION_DDOT":0}]
